FENGYUN 1C DEB          
1 31934U 99025CMK 17345.29510133  .00000753  00000-0  21721-3 0  9990
2 31934  98.9521 159.9994 0104518 103.5732 257.7125 14.44668995549465
